STARLINK-32656          
1 62452U 24251W   26168.45431790  .00018873  00000+0  56835-3 0  9995
2 62452  53.1577 231.8476 0001459  70.7381 289.3779 15.34397131 83064
STARLINK-32690          
1 62453U 24251X   26168.44243796  .00006368  00000+0  22690-3 0  9990
2 62453  53.1596 231.7726 0001346  96.4195 263.6959 15.30205042 82841
ASTRANIS UTILITYSAT     
1 62454U 24252A   26167.08587109 -.00000187  00000+0  00000+0 0  9991
2 62454   9.1177 327.4187 7532383 253.4424  19.2446  1.00281662  5417
NUVIEW ALPHA            
1 62455U 24252B   26168.88032419 -.00000221  00000+0  00000+0 0  9999
2 62455   0.0583  37.5022 0000978  20.0883  82.3770  1.00271016  3833
AGILA                   
1 62456U 24252C   26168.85562409 -.00000187  00000+0  00000+0 0  9995
2 62456   0.0658 122.9881 0001063 327.6699 275.6267  1.00271902  5166
NUVIEW BRAVO            
1 62457U 24252D   26168.88032419 -.00000220  00000+0  00000+0 0  9990
2 62457   0.0702 152.3608 0001984 332.4706  15.0853  1.00270227  3801
SDX01                   
1 62459U 24253A   26168.88506557  .00078306  00000+0  63778-3 0  9996
2 62459  54.9942 344.5692 0001519 177.9141 182.1908 15.70028902 82643
SDX02                   
1 62460U 24253B   26168.88495676  .00075958  00000+0  61997-3 0  9998
2 62460  54.9946 344.5700 0001628 177.8576 182.2473 15.69989826 82637
STARLINK-11518 [DTC]    
1 62462U 24254A   26168.87626354  .00158283  00000+0  12093-2 0  9994
2 62462  43.0011 339.4797 0003261 266.4138  93.6357 15.70923679 85167
STARLINK-11455 [DTC]    
1 62463U 24254B   26168.18216626  .00146319  00000+0  11208-2 0  9990
2 62463  42.9993 343.7374 0001360 299.4427  60.6305 15.70905341 85049
STARLINK-11178 [DTC]    
1 62465U 24254D   26167.53039832  .00133724  00000+0  10273-2 0  9999
2 62465  43.0007 347.4419 0002505 270.4704  89.5877 15.70877383 84787
STARLINK-11506 [DTC]    
1 62466U 24254E   26168.95034227  .00241210  00000+0  18294-2 0  9991
2 62466  42.9999 338.2870 0001732 301.9430  58.1269 15.70838217 85019
STARLINK-11486 [DTC]    
1 62467U 24254F   26167.79004332  .00222025  00000+0  16846-2 0  9991
2 62467  42.9991 345.9502 0001498 254.9985 105.0717 15.70887980 84986
STARLINK-11511 [DTC]    
1 62468U 24254G   26168.91330690  .00209096  00000+0  15787-2 0  9992
2 62468  43.0034 338.8810 0002633 291.4149  68.6438 15.71043693 85161
STARLINK-11505 [DTC]    
1 62469U 24254H   26168.52118502  .00139614  00000+0  10724-2 0  9990
2 62469  43.0000 341.0943 0002140 293.3487  66.7155 15.70860546 85097
STARLINK-11497 [DTC]    
1 62470U 24254J   26167.77411645  .00136395  00000+0  10462-2 0  9994
2 62470  42.9994 345.8217 0001438 264.5555  95.5148 15.70906935 84982
STARLINK-11477 [DTC]    
1 62471U 24254K   26168.89737494  .00158009  00000+0  12072-2 0  9997
2 62471  42.9981 338.7514 0001807 260.0692  99.9972 15.70927546 85157
STARLINK-11500 [DTC]    
1 62472U 24254L   26168.91668981  .00020770  00000+0  16509-3 0  9998
2 62472  43.0003 338.5617 0001666 273.9968 225.4938 15.70820549  6043
STARLINK-11464 [DTC]    
1 62473U 24254M   26168.92391914  .00154547  00000+0  11834-2 0  9994
2 62473  43.0020 338.9644 0002722 273.8067  86.2489 15.70882745 85216
STARLINK-11502 [DTC]    
1 62474U 24254N   26168.20858036  .00182836  00000+0  13929-2 0  9998
2 62474  43.0004 343.0501 0001704 279.4429  80.6246 15.70914057 85054
STARLINK-32657          
1 62475U 24254P   26168.46116585  .00011346  00000+0  42094-3 0  9996
2 62475  42.9971 176.2116 0000266 254.7744 105.3078 15.27600063 82722
STARLINK-32734          
1 62476U 24254Q   26167.30782838  .00011173  00000+0  41483-3 0  9998
2 62476  43.0007 179.5733 0002608 277.9763  82.0793 15.27586319 82739
STARLINK-32733          
1 62477U 24254R   26167.72571651  .00014299  00000+0  52800-3 0  9991
2 62477  42.9984 176.6846 0001386 269.7480  90.3213 15.27586474 82801
STARLINK-32707          
1 62478U 24254S   26167.75524532  .00015458  00000+0  56980-3 0  9992
2 62478  43.0005 176.9072 0002551 266.6077  93.4483 15.27594490 82805
STARLINK-32705          
1 62479U 24254T   26167.70481873  .00012097  00000+0  44825-3 0  9999
2 62479  42.9987 169.6052 0001716 272.3012  87.7643 15.27589454 82724
STARLINK-32743          
1 62480U 24254U   26167.32566738  .00013301  00000+0  49171-3 0  9991
2 62480  43.0074 178.8460 0000353 235.6927 124.3892 15.27598989 82742
STARLINK-32753          
1 62481U 24254V   26168.97574884  .00013367  00000+0  49414-3 0  9997
2 62481  42.9955 169.7281 0000153 113.5537 246.5331 15.27596629 82999
STARLINK-32699          
1 62482U 24254W   26167.34317382  .00010781  00000+0  40063-3 0  9994
2 62482  42.9981 182.4401 0001349 273.5842  86.4856 15.27586690 82551
THURAYA-4               
1 62483U 25001A   26168.90554834  .00000134  00000+0  00000+0 0  9998
2 62483   0.0268  66.0250 0000199 212.5359 357.8928  1.00272304  4180
SHIJIAN-25 (SJ-25)      
1 62485U 25002A   26168.80679181 -.00000358  00000+0  00000+0 0  9992
2 62485   5.1153  61.1628 0052241 173.4299  89.1640  1.00264537  5365
