OBJECT_NAME,OBJECT_ID,EPOCH,MEAN_MOTION,ECCENTRICITY,INCLINATION,RA_OF_ASC_NODE,ARG_OF_PERICENTER,MEAN_ANOMALY,EPHEMERIS_TYPE,CLASSIFICATION_TYPE,NORAD_CAT_ID,ELEMENT_SET_NO,REV_AT_EPOCH,BSTAR,MEAN_MOTION_DOT,MEAN_MOTION_DDOT
STARLINK-32656,2024-251W,2026-06-17T10:54:13.066560,15.34397131,.00014597,53.1577,231.8476,70.7381,289.3779,0,U,62452,999,8306,.56835296E-3,.18873E-3,0
STARLINK-32690,2024-251X,2026-06-17T10:37:06.639744,15.30205042,.00013464,53.1596,231.7726,96.4195,263.6959,0,U,62453,999,8284,.22689993E-3,.6368E-4,0
ASTRANIS UTILITYSAT,2024-252A,2026-06-16T02:03:39.262176,1.00281662,.75323836,9.1177,327.4187,253.4424,19.2446,0,U,62454,999,541,0,-.187E-5,0
NUVIEW ALPHA,2024-252B,2026-06-17T21:07:40.010016,1.00271016,.00009782,0.0583,37.5022,20.0883,82.3770,0,U,62455,999,383,0,-.221E-5,0
AGILA,2024-252C,2026-06-17T20:32:05.921376,1.00271902,.0001063,0.0658,122.9881,327.6699,275.6267,0,U,62456,999,516,0,-.187E-5,0
NUVIEW BRAVO,2024-252D,2026-06-17T21:07:40.010016,1.00270227,.0001984,0.0702,152.3608,332.4706,15.0853,0,U,62457,999,380,0,-.22E-5,0
SDX01,2024-253A,2026-06-17T21:14:29.665248,15.70028902,.00015198,54.9942,344.5692,177.9141,182.1908,0,U,62459,999,8264,.63777708E-3,.78306E-3,0
SDX02,2024-253B,2026-06-17T21:14:20.264064,15.69989826,.00016283,54.9946,344.5700,177.8576,182.2473,0,U,62460,999,8263,.61997052E-3,.75958E-3,0
STARLINK-11518 [DTC],2024-254A,2026-06-17T21:01:49.169856,15.70923679,.00032617,43.0011,339.4797,266.4138,93.6357,0,U,62462,999,8516,.12092524E-2,.158283E-2,0
STARLINK-11455 [DTC],2024-254B,2026-06-17T04:22:19.164864,15.70905341,.00013607,42.9993,343.7374,299.4427,60.6305,0,U,62463,999,8504,.11207584E-2,.146319E-2,0
STARLINK-11178 [DTC],2024-254D,2026-06-16T12:43:46.414848,15.70877383,.00025052,43.0007,347.4419,270.4704,89.5877,0,U,62465,999,8478,.10272751E-2,.133724E-2,0
STARLINK-11506 [DTC],2024-254E,2026-06-17T22:48:29.572128,15.70838217,.00017326,42.9999,338.2870,301.9430,58.1269,0,U,62466,999,8501,.18293994E-2,.24121E-2,0
STARLINK-11486 [DTC],2024-254F,2026-06-16T18:57:39.742848,15.70887980,.00014985,42.9991,345.9502,254.9985,105.0717,0,U,62467,999,8498,.16845751E-2,.222025E-2,0
STARLINK-11511 [DTC],2024-254G,2026-06-17T21:55:09.716160,15.71043693,.00026333,43.0034,338.8810,291.4149,68.6438,0,U,62468,999,8516,.15787388E-2,.209096E-2,0
STARLINK-11505 [DTC],2024-254H,2026-06-17T12:30:30.385728,15.70860546,.00021402,43.0000,341.0943,293.3487,66.7155,0,U,62469,999,8509,.10723968E-2,.139614E-2,0
STARLINK-11497 [DTC],2024-254J,2026-06-16T18:34:43.661280,15.70906935,.00014381,42.9994,345.8217,264.5555,95.5148,0,U,62470,999,8498,.10461557E-2,.136395E-2,0
STARLINK-11477 [DTC],2024-254K,2026-06-17T21:32:13.194816,15.70927546,.00018074,42.9981,338.7514,260.0692,99.9972,0,U,62471,999,8515,.12071671E-2,.158009E-2,0
STARLINK-11500 [DTC],2024-254L,2026-06-17T22:00:01.999584,15.70820549,.00016661,43.0003,338.5617,273.9968,225.4938,0,U,62472,999,604,.16508572E-3,.2077E-3,0
STARLINK-11464 [DTC],2024-254M,2026-06-17T22:10:26.613696,15.70882745,.00027226,43.0020,338.9644,273.8067,86.2489,0,U,62473,999,8521,.11834316E-2,.154547E-2,0
STARLINK-11502 [DTC],2024-254N,2026-06-17T05:00:21.343104,15.70914057,.00017042,43.0004,343.0501,279.4429,80.6246,0,U,62474,999,8505,.13929183E-2,.182836E-2,0
STARLINK-32657,2024-254P,2026-06-17T11:04:04.729440,15.27600063,.00002661,42.9971,176.2116,254.7744,105.3078,0,U,62475,999,8272,.42093861E-3,.11346E-3,0
STARLINK-32734,2024-254Q,2026-06-16T07:23:16.372032,15.27586319,.0002608,43.0007,179.5733,277.9763,82.0793,0,U,62476,999,8273,.41483E-3,.11173E-3,0
STARLINK-32733,2024-254R,2026-06-16T17:25:01.906464,15.27586474,.00013867,42.9984,176.6846,269.7480,90.3213,0,U,62477,999,8280,.52800409E-3,.14299E-3,0
STARLINK-32707,2024-254S,2026-06-16T18:07:33.195648,15.27594490,.00025513,43.0005,176.9072,266.6077,93.4483,0,U,62478,999,8280,.56979898E-3,.15458E-3,0
STARLINK-32705,2024-254T,2026-06-16T16:54:56.338272,15.27589454,.00017163,42.9987,169.6052,272.3012,87.7643,0,U,62479,999,8272,.44824619E-3,.12097E-3,0
STARLINK-32743,2024-254U,2026-06-16T07:48:57.661632,15.27598989,.0000353,43.0074,178.8460,235.6927,124.3892,0,U,62480,999,8274,.49170736E-3,.13301E-3,0
STARLINK-32753,2024-254V,2026-06-17T23:25:04.699776,15.27596629,.00001533,42.9955,169.7281,113.5537,246.5331,0,U,62481,999,8299,.49413522E-3,.13367E-3,0
STARLINK-32699,2024-254W,2026-06-16T08:14:10.218048,15.27586690,.00013492,42.9981,182.4401,273.5842,86.4856,0,U,62482,999,8255,.40063011E-3,.10781E-3,0
THURAYA-4,2025-001A,2026-06-17T21:43:59.376576,1.00272304,.00001991,0.0268,66.0250,212.5359,357.8928,0,U,62483,999,418,0,.134E-5,0
SHIJIAN-25 (SJ-25),2025-002A,2026-06-17T19:21:46.812384,1.00264537,.0052241,5.1153,61.1628,173.4299,89.1640,0,U,62485,999,536,0,-.358E-5,0
